[{"OBJECT_NAME":"STARLINK-11309 [DTC]","OBJECT_ID":"2024-171C","EPOCH":"2026-03-09T14:24:22.402656","MEAN_MOTION":15.69721893,"ECCENTRICITY":0.000152,"INCLINATION":53.1587,"RA_OF_ASC_NODE":176.7811,"ARG_OF_PERICENTER":46.3779,"MEAN_ANOMALY":313.7364,"EPHEMERIS_TYPE":0,"CLASSIFICATION_TYPE":"U","NORAD_CAT_ID":61202,"ELEMENT_SET_NO":999,"REV_AT_EPOCH":8438,"BSTAR":-3.8602e-5,"MEAN_MOTION_DOT":-5.265e-5,"MEAN_MOTION_DDOT":0},{"OBJECT_NAME":"FAST","OBJECT_ID":"1996-049A","EPOCH":"2026-03-09T22:28:35.624352","MEAN_MOTION":11.82117041,"ECCENTRICITY":0.17389396,"INCLINATION":82.9442,"RA_OF_ASC_NODE":97.3438,"ARG_OF_PERICENTER":315.8434,"MEAN_ANOMALY":31.5935,"EPHEMERIS_TYPE":0,"CLASSIFICATION_TYPE":"U","NORAD_CAT_ID":24285,"ELEMENT_SET_NO":999,"REV_AT_EPOCH":22093,"BSTAR":0.00058191674,"MEAN_MOTION_DOT":7.541e-5,"MEAN_MOTION_DDOT":0}]
